[{"OBJECT_NAME":"STARLINK-32628","OBJECT_ID":"2024-222J","EPOCH":"2026-03-09T12:29:58.618176","MEAN_MOTION":15.27584243,"ECCENTRICITY":0.0001489,"INCLINATION":43.0014,"RA_OF_ASC_NODE":137.0954,"ARG_OF_PERICENTER":276.6665,"MEAN_ANOMALY":83.4017,"EPHEMERIS_TYPE":0,"CLASSIFICATION_TYPE":"U","NORAD_CAT_ID":62122,"ELEMENT_SET_NO":999,"REV_AT_EPOCH":7289,"BSTAR":0.00083081558,"MEAN_MOTION_DOT":0.00022673,"MEAN_MOTION_DDOT":0},{"OBJECT_NAME":"COSMOS 2535 DEB","OBJECT_ID":"2019-039M","EPOCH":"2026-03-08T03:25:35.903424","MEAN_MOTION":15.28322551,"ECCENTRICITY":0.0014917,"INCLINATION":97.5619,"RA_OF_ASC_NODE":139.2722,"ARG_OF_PERICENTER":329.0964,"MEAN_ANOMALY":30.9396,"EPHEMERIS_TYPE":0,"CLASSIFICATION_TYPE":"U","NORAD_CAT_ID":44641,"ELEMENT_SET_NO":999,"REV_AT_EPOCH":35167,"BSTAR":0.0011539757,"MEAN_MOTION_DOT":0.0003196,"MEAN_MOTION_DDOT":0}]
